geo_id,deped_id,school_name,address,adm0,adm1,adm2,adm3,longitude,latitude
BHR-000000,1,AL BARAKA KINDERGARTEN,,BHR,Muharraq Governorate,,,50.62139684,26.2610714899999
BHR-000001,2,AL BARAKA KINDERGARTEN,,BHR,Northern Governorate,,,50.49658972,26.1344583399999
BHR-000002,3,AL BAWASIM KINDERGARTEN,,BHR,Muharraq Governorate,,,50.62684962,26.28675493
BHR-000003,4,AL BUDOOR KINDERGARTEN,,BHR,Northern Governorate,,,50.4985227,26.12962711
BHR-000004,5,AL BURAQ KINDERGARTEN,,BHR,Capital Governorate,,,50.54735309,26.22418005
BHR-000005,6,AL DANA KINDERGARTEN,,BHR,Capital Governorate,,,50.5662348899999,26.22012539
BHR-000006,7,AL DANA KINDERGARTEN,,BHR,Southern Governorate,,,50.5494868299999,26.1344105499999
BHR-000007,8,AL DANA KINDERGARTEN,,BHR,Southern Governorate,,,50.56814863,26.1289209199999
BHR-000008,9,AL EHSAN KINDERGARTEN,,BHR,Muharraq Governorate,,,50.64304287,26.24713746
BHR-000009,10,AL EMAM AL HASAN MODEL KINDERGARTEN,,BHR,Southern Governorate,,,50.5054084,26.06593262
BHR-000010,11,AL EMAM AL HUSSAIN KINDERGARTEN,,BHR,Capital Governorate,,,50.58047286,26.1440532499999
BHR-000011,12,AL EMAM MUHAMMAD BIN SAʻUD KINDERGARTEN,,BHR,Southern Governorate,,,50.5805417799999,26.1180370199999
BHR-000012,13,AL FARDOUS KINDERGARTEN,,BHR,Southern Governorate,,,50.57000337,26.13030836
BHR-000013,14,AL FAROUQ KINDERGARTEN,,BHR,Southern Governorate,,,50.5577995299999,26.17427761
BHR-000014,15,AL FATEH MODEL KINDERGARTEN,,BHR,Capital Governorate,,,50.58576921,26.20512279
BHR-000015,16,AL HAKEEM KINDERGARTEN,,BHR,Northern Governorate,,,50.52827417,26.20105922
BHR-000016,17,AL HANAN KINDERGARTEN,,BHR,Capital Governorate,,,50.5590859699999,26.2017510899999
BHR-000017,18,AL HIDAYAH KINDERGARTEN,,BHR,Muharraq Governorate,,,50.6078868999999,26.2647483199999
BHR-000018,19,AL JAWAHER KINDERGARTEN,,BHR,Capital Governorate,,,50.5714312599999,26.1649663299999
BHR-000019,20,AL KHAIR KINDERGARTEN,,BHR,Northern Governorate,,,50.48307803,26.19309725
BHR-000020,21,AL KHALEEJ KINDERGARTEN,,BHR,Capital Governorate,,,50.56484399,26.22111255
BHR-000021,22,AL MAAʻALI GATE MODEL KINDERGARTEN,,BHR,Northern Governorate,,,50.52638205,26.16247381
BHR-000022,23,AL MAʻAMEER KINDERGARTEN,,BHR,Capital Governorate,,,50.6136528199999,26.13754801
BHR-000023,24,AL MAJD KINDERGARTEN,,BHR,Northern Governorate,,,50.52934573,26.20998792
BHR-000024,25,AL MAJD MODEL KINDERGARTEN,,BHR,Muharraq Governorate,,,50.61115147,26.2706658799999
BHR-000025,26,AL MANHAL KINDERGARTEN,,BHR,Capital Governorate,,,50.57848638,26.15118418
BHR-000026,27,AL NAHDHA KINDERGARTEN,,BHR,Capital Governorate,,,50.60716476,26.2078158399999
BHR-000027,28,AL NASSERIYAH KINDERGARTEN,,BHR,Southern Governorate,,,50.5452503699999,26.1787039099999
BHR-000028,29,AL NASSERIYAH KINDERGARTEN,,BHR,Northern Governorate,,,50.50609689,26.12277641
BHR-000029,30,AL NOORAIN KINDERGARTEN,,BHR,Capital Governorate,,,50.53265599,26.23209499
BHR-000030,31,AL OLA KINDERGARTEN,,BHR,Northern Governorate,,,50.52938815,26.2102344599999
BHR-000031,32,AL RAED KINDERGARTEN,,BHR,Muharraq Governorate,,,50.65644245,26.2471991699999
BHR-000032,33,AL RAWABI KINDERGARTEN,,BHR,Capital Governorate,,,50.53088151,26.2206468699999
BHR-000033,34,AL RAYYAN KINDERGARTEN,,BHR,Muharraq Governorate,,,50.6118644,26.27721371
BHR-000034,35,AL SALAM KINDERGARTEN,,BHR,Capital Governorate,,,50.6091543,26.21776608
BHR-000035,36,AL SANABEL KINDERGARTEN,,BHR,Capital Governorate,,,50.6019994299999,26.2062308199999
BHR-000036,37,AL SANABEL SCHOOL,,BHR,Capital Governorate,,,50.60201242,26.20604256
BHR-000037,38,AL SHOROOQ KINDERGARTEN,,BHR,Southern Governorate,,,50.55208332,26.1303180799999
BHR-000038,39,AL WAFA KINDERGARTEN,,BHR,Muharraq Governorate,,,50.61986334,26.25983631
BHR-000039,40,AL WALAA KINDERGARTEN,,BHR,Northern Governorate,,,50.45837222,26.2087717699999
BHR-000040,41,AL YAQEEN KINDERGARTEN,,BHR,Southern Governorate,,,50.5725530599999,26.13959347
BHR-000041,42,AL ZENJ NEW KINDERGARTEN,,BHR,Capital Governorate,,,50.5742962799999,26.2096672899999
BHR-000042,43,ALAALDIN KINDERGARTEN,,BHR,Capital Governorate,,,50.56672957,26.16950735
BHR-000043,44,ALAHAD KINDERGARTEN,,BHR,Southern Governorate,,,50.57951914,26.12041933
BHR-000044,45,ALANJAAL KINDERGARTEN,,BHR,Southern Governorate,,,50.54829491,26.13079613
BHR-000045,46,ALBARAEM ALSAGHEERA KINDERGARTEN,,BHR,Northern Governorate,,,50.50260715,26.1267165599999
BHR-000046,47,ALBASHAYER KINDERGARTEN,,BHR,Muharraq Governorate,,,50.65236866,26.24703367
BHR-000047,48,ALBATOOL KINDERGARTEN,,BHR,Capital Governorate,,,50.60961503,26.16361329
BHR-000048,49,ALBAYADER KINDERGARTEN,,BHR,Northern Governorate,,,50.4992943,26.1318965799999
BHR-000049,50,ALDUAA KINDERGARTEN,,BHR,Northern Governorate,,,50.52743757,26.21414965
BHR-000050,51,ALFURQAN KINDERGARTEN,,BHR,Southern Governorate,,,50.57315238,26.133298
BHR-000051,52,ALGHADEER KINDERGARTEN,,BHR,Northern Governorate,,,50.52861918,26.21870874
BHR-000052,53,ALGHADEER KINDERGARTEN,,BHR,Capital Governorate,,,50.56140177,26.1781145399999
BHR-000053,54,ALHANEEN KINDERGARTEN,,BHR,Southern Governorate,,,50.54518678,26.17874711
BHR-000054,55,ALHUDA KINDERGARTEN,,BHR,Southern Governorate,,,50.5610880899999,26.13046997
BHR-000055,56,ALJINAN KINDERGARTEN,,BHR,Northern Governorate,,,50.49595483,26.1378502899999
BHR-000056,57,ALL CHILDREN KINDERGARTEN,,BHR,Capital Governorate,,,50.5836736099999,26.2080831399999
BHR-000057,58,ALMAHA KINDERGARTEN,,BHR,Northern Governorate,,,50.5048521399999,26.1126948
BHR-000058,59,ALNAHDAH KINDERGARTEN,,BHR,Southern Governorate,,,50.57365094,26.13069227
BHR-000059,60,ALSHAMOUSE KINDERGARTEN,,BHR,Southern Governorate,,,50.5859575599999,26.13993087
BHR-000060,61,ALSIMAT KINDERGARTEN,,BHR,Northern Governorate,,,50.4592699399999,26.21808966
BHR-000061,62,ALTOFOLAH ALSAEEDAH KINDERGARTEN,,BHR,Southern Governorate,,,50.5554469699999,26.1380549999999
BHR-000062,63,ALWAHA FIRST STEPS,,BHR,Southern Governorate,,,50.54964798,26.1690607399999
BHR-000063,64,ANWAR AL GHADEER KINDERGARTEN,,BHR,Northern Governorate,,,50.5243971499999,26.21831311
BHR-000064,65,ATFAL ALMOHANNA KINDERGARTEN,,BHR,Northern Governorate,,,50.5185374499999,26.1523939799999
BHR-000065,66,ATFAL AWAL KINDERGARTEN,,BHR,Muharraq Governorate,,,50.6439824699999,26.25350162
BHR-000066,67,BANI JAMRAH KINDERGARTEN,,BHR,Northern Governorate,,,50.45869881,26.21142327
BHR-000067,68,BEES KINGDOM KINDERGARTEN,,BHR,Northern Governorate,,,50.5057549599999,26.1487828399999
BHR-000068,69,BIRDS KINGDOM KINDERGARTEN,,BHR,Muharraq Governorate,,,50.6029765199999,26.27366258
BHR-000069,70,CAPITAL KINDERGARTEN,,BHR,Capital Governorate,,,50.56582153,26.1699149099999
BHR-000070,71,CARE KINDERGARTEN,,BHR,Northern Governorate,,,50.51004341,26.07131289
BHR-000071,72,CHILD HOUSE KINDERGARTEN,,BHR,Capital Governorate,,,50.60174622,26.2133099399999
BHR-000072,73,CHILD MODEL KINDERGARTEN,,BHR,Capital Governorate,,,50.54198319,26.2186700299999
BHR-000073,74,CHILDHOOD DREAMS KINDERGARTEN,,BHR,Northern Governorate,,,50.4788581199999,26.1277981399999
BHR-000074,75,CHILDREN ISLAND KINDERGARTEN,,BHR,Muharraq Governorate,,,50.61341652,26.24278601
BHR-000075,76,CHILDRENS HOME KINDERGARTEN,,BHR,Northern Governorate,,,50.4587228999999,26.20361918
BHR-000076,77,CORNER KINDERGARTEN,,BHR,Southern Governorate,,,50.56140665,26.1327655499999
BHR-000077,78,DUNYA ALATFAL KINDERGARTEN,,BHR,Southern Governorate,,,50.54420574,26.1714261599999
BHR-000078,79,EARLY EDUCATION KINDERGARTEN,,BHR,Southern Governorate,,,50.5532450199999,26.1351962399999
BHR-000079,80,ELEFRIENDS PRESCHOOL,,BHR,Northern Governorate,,,50.4916387999999,26.1967843
BHR-000080,81,FRIENDSHIP KINDERGARTEN FOR BLIND CHILDREN,,BHR,Southern Governorate,,,50.5676828499999,26.15108147
BHR-000081,82,FUTURE GENERATION KINDERGARTEN,,BHR,Muharraq Governorate,,,50.60703663,26.25873704
BHR-000082,83,FUTURE KINDERGARTEN,,BHR,Capital Governorate,,,50.59022532,26.2127599999999
BHR-000083,84,GULF PEARL HOTEL,,BHR,Capital Governorate,,,50.5527132599999,26.2021472799999
BHR-000084,85,JANA KINDERGARTEN,,BHR,Northern Governorate,,,50.51267388,26.2210736
BHR-000085,86,JANAT ALATFAL KINDERGARTEN,,BHR,Southern Governorate,,,50.54117345,26.18386221
BHR-000086,87,JIDHAFS KINDERGARTEN,,BHR,Capital Governorate,,,50.5394786399999,26.2144008299999
BHR-000087,88,KIDS 'R' KIDS KINDERGARTEN,,BHR,Southern Governorate,,,50.5661278099999,26.15278902
BHR-000088,89,KIDZ WORLD KINDERGARTEN,,BHR,Capital Governorate,,,50.58592093,26.2150491999999
BHR-000089,90,KINDERGARTEN BAHRAIN CLUB MODEL,,BHR,Muharraq Governorate,,,50.61120245,26.26167551
BHR-000090,91,LITTLE EXPLORER KINDERGARTEN ,,BHR,Muharraq Governorate,,,50.6527448399999,26.23809577
BHR-000091,92,MADELEINES KINDERGARTEN,,BHR,Capital Governorate,,,50.58224947,26.2112630799999
BHR-000092,93,MAJID AL ZAYANI KINDERGARTEN,,BHR,Southern Governorate,,,50.55175776,26.13354985
BHR-000093,94,MUHARRAQ CLUB KINDERGARTEN,,BHR,Muharraq Governorate,,,50.6279577999999,26.2551922
BHR-000094,95,NOOR ALMAARIF KINDERGARTEN,,BHR,Southern Governorate,,,50.50881153,26.13262127
BHR-000095,96,RUFAIDA KINDERGARTEN,,BHR,Capital Governorate,,,50.58945545,26.2220548399999
BHR-000096,97,SACRED HEART SCHOOL - KINDERGARTEN,,BHR,Capital Governorate,,,50.5801839599999,26.22663417
BHR-000097,98,SAFA KINDERGARTEN,,BHR,Muharraq Governorate,,,50.6211310099999,26.2522986
BHR-000098,99,SARAH KINDERGARTEN,,BHR,Capital Governorate,,,50.55323312,26.18000009
BHR-000099,100,SEDRAT ALASAFEER KINDERGARTEN,,BHR,Muharraq Governorate,,,50.63765739,26.25317279
BHR-000100,101,SINDIBAD KINDERGARTEN,,BHR,Northern Governorate,,,50.50656412,26.1488525199999
BHR-000101,102,SMALL STARS KINDERGARTEN,,BHR,Southern Governorate,,,50.57169179,26.13309642
BHR-000102,103,SMALL WORLD KINDERGARTEN,,BHR,Northern Governorate,,,50.51720944,26.2289420799999
BHR-000103,104,SMART START KINDERGARTEN,,BHR,Southern Governorate,,,50.5776528299999,26.13350829
BHR-000104,105,TAREEQ AL KHAIR KINDERGARTEN,,BHR,Muharraq Governorate,,,50.63076052,26.2822306099999
BHR-000105,106,THE BUDAIYA PRE-SCHOOL,,BHR,Northern Governorate,,,50.4863392,26.2056570899999
BHR-000106,107,THE EARLY KINDERGARTEN,,BHR,Capital Governorate,,,50.54774183,26.18367297
BHR-000107,108,THE LEARNING TREE NURSERY & KINDERGARTEN,,BHR,Northern Governorate,,,50.47500326,26.14491606
BHR-000108,109,TINY TIPS PRE SCHOOL,,BHR,Capital Governorate,,,50.59210375,26.20796577
BHR-000109,110,YOUNG DEER KINDERGARTEN,,BHR,Northern Governorate,,,50.50535757,26.12606736
BHR-000110,111,ZALLAQ KINDERGARTEN,,BHR,Southern Governorate,,,50.4913467599999,26.0487514
BHR-000111,112,ZINAT AL HAYAT KINDERGARTEN,,BHR,Northern Governorate,,,50.5057450099999,26.09203399
BHR-000112,113,ZUHOOR AL BANAFSAJ KINDERGARTEN,,BHR,Capital Governorate,,,50.5331237999999,26.23150379
BHR-000228,229,AʻALI INTERMEDIATE BOYS SCHOOL,,BHR,Northern Governorate,,,50.52181883,26.1549224299999
BHR-000229,230,AʻALI PRIMARY BOYS SCHOOL,,BHR,Northern Governorate,,,50.5323721,26.15055676
BHR-000230,231,ABDULRAHMAN AL NASSER PRIMARY & INTERMEDIATE BOYS SCHOOL,,BHR,Muharraq Governorate,,,50.6170687999999,26.2491381699999
BHR-000231,232,ABDULRAHMAN ALDAKHIL INTERMEDIATE BOYS SCHOOL,,BHR,Capital Governorate,,,50.59345795,26.22751937
BHR-000232,233,ABU AL AALA AL MAARI PRIMARY BOYS SCHOOL,,BHR,Muharraq Governorate,,,50.61845069,26.2543758899999
BHR-000233,234,ABU AUBAYDAH AL JARRAH PRIMARY BOYS SCHOOL,,BHR,Muharraq Governorate,,,50.6142023199999,26.25102864
BHR-000234,235,ABU BAKER AL SIDDIQ PRIMARY BOYS SCHOOL,,BHR,Capital Governorate,,,50.57852037,26.2259342599999
BHR-000235,236,ABU FERAS ALHAMADANY PRIMARY BOYS SCHOOL,,BHR,Muharraq Governorate,,,50.61558379,26.2522910799999
BHR-000236,237,ABU SAIBEA PRIMARY BOYS SCHOOL,,BHR,Northern Governorate,,,50.50312144,26.2167315099999
BHR-000237,238,AHMED AL FATEH PRIMARY & INTERMEDIATE BOYS SCHOOL,,BHR,Southern Governorate,,,50.5752443599999,26.1196046899999
BHR-000238,239,AHMED AL OMRAN SECONDARY BOYS SCHOOL,,BHR,Capital Governorate,,,50.5907709199999,26.23344664
BHR-000239,240,AL ALAA AL HADHRAMI PRIMARY BOYS SCHOOL,,BHR,Capital Governorate,,,50.57564472,26.2153987
BHR-000240,241,AL BUDAIYA PRIMARY BOYS SCHOOL,,BHR,Northern Governorate,,,50.45747713,26.2130107499999
BHR-000241,242,AL BUSAITEEN PRIMARY BOYS SCHOOL,,BHR,Muharraq Governorate,,,50.60598727,26.2617498199999
BHR-000242,243,AL DAIR PRIMARY BOYS SCHOOL,,BHR,Muharraq Governorate,,,50.6273652599999,26.2817170199999
BHR-000243,244,AL DHIYAA PRIMARY BOYS SCHOOL,,BHR,Northern Governorate,,,50.52205286,26.15430623
BHR-000244,245,AL DIRAZ INTERMEDIATE BOYS SCHOOL,,BHR,Northern Governorate,,,50.46840628,26.22319904
BHR-000245,246,AL EMAM ALGHAZALI INTERMEDIATE BOYS SCHOOL,,BHR,Northern Governorate,,,50.5083103999999,26.10547321
BHR-000246,247,AL EMAM ALI PRIMARY & INTERMEDIATE BOYS SCHOOL,,BHR,Capital Governorate,,,50.61320674,26.13259811
BHR-000247,248,AL EMAM ALTABARI PRIMARY BOYS SCHOOL,,BHR,Southern Governorate,,,50.5600866999999,26.1646598399999
BHR-000248,249,AL EMAM MALEK BIN ANAS PRIMARY BOYS SCHOOL,,BHR,Southern Governorate,,,50.5650445899999,26.14157395
BHR-000249,250,AL FARABI INTERMEDIATE BOYS SCHOOL,,BHR,Northern Governorate,,,50.5116307099999,26.0706782399999
BHR-000250,251,AL HIDAYAH AL KHALIFA SECONDARY BOYS SCHOOL,,BHR,Muharraq Governorate,,,50.60965816,26.2622016
BHR-000251,252,AL JASRAH PRIMARY BOYS SCHOOL,,BHR,Northern Governorate,,,50.4546420499999,26.16185097
BHR-000252,253,AL JAZEERA PRIMARY BOYS SCHOOL,,BHR,Capital Governorate,,,50.58280336,26.1848830399999
BHR-000253,254,AL KHALIL BIN AHMED INTERMEDIATE BOYS SCHOOL,,BHR,Northern Governorate,,,50.4819477599999,26.1170231999999
BHR-000254,255,AL KHAMIS PRIMARY BOYS SCHOOL,,BHR,Capital Governorate,,,50.54938484,26.20665601
BHR-000255,256,AL KHAWAREZMY PRIMARY BOYS SCHOOL,,BHR,Muharraq Governorate,,,50.64349541,26.25357513
BHR-000256,257,AL MAMOON PRIMARY BOYS SCHOOL,,BHR,Capital Governorate,,,50.58659156,26.22929291
BHR-000257,258,AL MUHARRAQ SECONDARY BOYS SCHOOL,,BHR,Muharraq Governorate,,,50.61979267,26.2583441899999
BHR-000258,259,AL MUNTHER BIN SAWI ALTEMEEMY PRIMARY BOYS SCHOOL,,BHR,Capital Governorate,,,50.60751657,26.13786405
BHR-000259,260,AL RAWDAH PRIMARY BOYS SCHOOL,,BHR,Northern Governorate,,,50.5089696399999,26.11376241
BHR-000260,261,AL RAZI PRIMARY BOYS SCHOOL,,BHR,Capital Governorate,,,50.5356374599999,26.22578942
BHR-000261,262,AL SEHLA PRIMARY & INTERMEDIATE BOYS SCHOOL,,BHR,Northern Governorate,,,50.5283943,26.2035182999999
BHR-000262,263,AL WADI PRIMARY BOYS SCHOOL,,BHR,Northern Governorate,,,50.50644599,26.08797527
BHR-000263,264,AL WEHDA SECONDARY BOYS SCHOOL,,BHR,Southern Governorate,,,50.5740613999999,26.12689975
BHR-000264,265,AL YARMOUK PRIMARY BOYS SCHOOL,,BHR,Capital Governorate,,,50.6220409,26.1557600699999
BHR-000265,266,AL ZALLAQ PRIMARY & INTERMEDIATE BOYS SCHOOL,,BHR,Southern Governorate,,,50.49043806,26.0498935799999
BHR-000266,267,ALJABERIYA SECONDARY TECHNICAL BOYS SCHOOL,,BHR,Capital Governorate,,,50.5738202599999,26.2077243499999
BHR-000267,268,ALMUTANABI PRIMARY BOYS SCHOOL,,BHR,Capital Governorate,,,50.58412837,26.2246382999999
BHR-000268,269,ALRASHEED PRIMARY BOYS SCHOOL,,BHR,Capital Governorate,,,50.5812059699999,26.23379183
BHR-000269,270,ALSALMANIYA INTERMEDIATE BOYS SCHOOL,,BHR,Capital Governorate,,,50.57133202,26.22172733
BHR-000270,271,ALSANABIS PRIMARY BOYS SCHOOL,,BHR,Capital Governorate,,,50.54445072,26.2248692699999
BHR-000271,272,ALTAAWON SECONDARY BOYS SCHOOL,,BHR,Capital Governorate,,,50.58541506,26.1463894
BHR-000272,273,AMMAR BEN YASER PRIMARY BOYS SCHOOL,,BHR,Capital Governorate,,,50.56934871,26.15982288
BHR-000273,274,AQBAH BIN NAFEA PRIMARY BOYS SCHOOL,,BHR,Southern Governorate,,,50.56022661,26.13433728
BHR-000274,275,ARAD PRIMARY & INTERMEDIATE BOYS SCHOOL,,BHR,Muharraq Governorate,,,50.63734962,26.2486028
BHR-000275,276,ARAD PRIMARY BOYS SCHOOL,,BHR,Muharraq Governorate,,,50.6322384899999,26.24664027
BHR-000276,277,ASKAR PRIMARY & INTERMEDIATE BOYS SCHOOL,,BHR,Southern Governorate,,,50.61694577,26.0596595899999
BHR-000277,278,AWAL INTERMEDIATE BOYS SCHOOL,,BHR,Capital Governorate,,,50.6200285899999,26.1556547399999
BHR-000278,279,BADER AL KUBRA PRIMARY BOYS SCHOOL,,BHR,Southern Governorate,,,50.5609339999999,26.16796312
BHR-000279,280,BAHRAIN PROFESSIONAL SECONDARY BOYS SCHOOL,,BHR,Southern Governorate,,,50.54758901,26.1587352499999
BHR-000280,281,BAR BAR PRIMARY BOYS SCHOOL,,BHR,Northern Governorate,,,50.47798306,26.22940199
BHR-000281,282,BILAD ALQADIM INTERMEDIATE BOYS SCHOOL,,BHR,Capital Governorate,,,50.55823534,26.2075234299999
BHR-000282,283,BURI PRIMARY BOYS SCHOOL,,BHR,Northern Governorate,,,50.4983753799999,26.1478175099999
BHR-000283,284,EAST RIFFA PRIMARY BOYS SCHOOL,,BHR,Southern Governorate,,,50.56405559,26.11728716
BHR-000284,285,EAST RIFFA SECONDARY BOYS SCHOOL,,BHR,Southern Governorate,,,50.5738833899999,26.1277675599999
BHR-000285,286,HAMAD TOWN INTERMEDIATE BOYS SCHOOL,,BHR,Northern Governorate,,,50.49611685,26.13109833
BHR-000286,287,HAMAD TOWN PRIMARY BOYS SCHOOL,,BHR,Northern Governorate,,,50.50437883,26.1266417
BHR-000287,288,HAMAD TOWN SECONDARY BOYS SCHOOL,,BHR,Northern Governorate,,,50.49701798,26.13242095
BHR-000288,289,HASAAN BIN THABIT PRIMARY BOYS SCHOOL,,BHR,Muharraq Governorate,,,50.60550253,26.25460002
BHR-000289,290,HATTEEN PRIMARY BOYS SCHOOL,,BHR,Capital Governorate,,,50.56430057,26.2246924499999
BHR-000290,291,HIDD PRIMARY & INTERMEDIATE BOYS SCHOOL,,BHR,Muharraq Governorate,,,50.65646456,26.2504382599999
BHR-000291,292,HIDD PRIMARY BOYS SCHOOL,,BHR,Muharraq Governorate,,,50.65697105,26.24354782
BHR-000292,293,IBN AL NAFIS PRIMARY BOYS SCHOOL,,BHR,Capital Governorate,,,50.6125766999999,26.15932209
BHR-000293,294,IBN ROSHD INTERMEDIATE BOYS SCHOOL,,BHR,Southern Governorate,,,50.56355318,26.1215294299999
BHR-000294,295,IBN SINA PRIMARY BOYS SCHOOL,,BHR,Northern Governorate,,,50.5047165699999,26.1344777899999
BHR-000295,296,IBN TUFAIL PRIMARY BOYS SCHOOL,,BHR,Northern Governorate,,,50.5134977199999,26.06467491
BHR-000296,297,ISA TOWN INTERMEDIATE BOYS SCHOOL,,BHR,Southern Governorate,,,50.5475877499999,26.1757578299999
BHR-000297,298,ISA TOWN PRIMARY BOYS SCHOOL,,BHR,Southern Governorate,,,50.5401306199999,26.1810034899999
BHR-000298,299,ISA TOWN SECONDARY BOYS SCHOOL,,BHR,Southern Governorate,,,50.5640116399999,26.1641109199999
BHR-000299,300,JAAFARI RELIGIOUS INSTITUTE,,BHR,Capital Governorate,,,50.60384844,26.2117396499999
BHR-000300,301,JABER BIN HAYAN PRIMARY BOYS SCHOOL,,BHR,Northern Governorate,,,50.4626865099999,26.2230914499999
BHR-000301,302,JIDHAFS INTERMEDIATE BOYS SCHOOL,,BHR,Northern Governorate,,,50.52866001,26.21683118
BHR-000302,303,JIDHAFS PRIMARY BOYS SCHOOL,,BHR,Capital Governorate,,,50.5361829499999,26.21679722
BHR-000303,304,JIDHAFS SECONDARY TECHNICAL BOYS SCHOOL,,BHR,Northern Governorate,,,50.52732308,26.21788411
BHR-000304,305,KARZAKKAN PRIMARY BOYS SCHOOL,,BHR,Northern Governorate,,,50.4823927799999,26.11604561
BHR-000305,306,KHALID BIN AL WALEED PRIMARY BOYS SCHOOL,,BHR,Southern Governorate,,,50.54760945,26.16847534
BHR-000306,307,NAIM SECONDARY BOYS SCHOOL,,BHR,Capital Governorate,,,50.5683148399999,26.22944987
BHR-000307,308,OMAR BIN ABDULAZIZ PRIMARY BOYS SCHOOL,,BHR,Muharraq Governorate,,,50.6170435599999,26.2440934199999
BHR-000308,309,OMAR BIN AL KHATTAB PRIMARY & INTERMEDIATE BOYS SCHOOL,,BHR,Muharraq Governorate,,,50.60902836,26.25829677
BHR-000309,310,OSAMAH BIN ZAID PRIMARY BOYS SCHOOL,,BHR,Northern Governorate,,,50.5029978099999,26.09944716
BHR-000310,311,OTHMAN BIN AFFAN INTERMEDIATE BOYS SCHOOL,,BHR,Southern Governorate,,,50.56131889,26.16392717
BHR-000311,312,QALALI PRIMARY BOYS SCHOOL,,BHR,Muharraq Governorate,,,50.65548176,26.26815007
BHR-000312,313,QUDAIBIYA PRIMARY & INTERMEDIATE BOYS SCHOOL,,BHR,Capital Governorate,,,50.59226245,26.2208684699999
BHR-000313,314,RELIGIOUS INSTITUTE,,BHR,Capital Governorate,,,50.60038412,26.21787071
BHR-000314,315,RELIGIOUS INSTITUTE,,BHR,Capital Governorate,,,50.60828447,26.2126872099999
BHR-000315,316,RIFFA INTERMEDIATE BOYS SCHOOL,,BHR,Southern Governorate,,,50.5647929399999,26.1324611699999
BHR-000316,317,SAAD BIN ABI WAQAS PRIMARY BOYS SCHOOL,,BHR,Northern Governorate,,,50.5010341799999,26.11107664
BHR-000317,318,SAFREH PRIMARY & INTERMEDIATE BOYS SCHOOL,,BHR,Southern Governorate,,,50.54176205,26.09982703
BHR-000318,319,SALAH ALDIN AL AYOUBI PRIMARY BOYS SCHOOL,,BHR,Southern Governorate,,,50.57251093,26.1282232699999
BHR-000319,320,SAMAHEEJ PRIMARY & INTERMEDIATE BOYS SCHOOL,,BHR,Muharraq Governorate,,,50.6397638099999,26.27635699
BHR-000320,321,SANAD PRIMARY BOYS SCHOOL,,BHR,Capital Governorate,,,50.58003481,26.15233763
BHR-000321,322,SAR PRIMARY BOYS SCHOOL,,BHR,Northern Governorate,,,50.4840844,26.1936095599999
BHR-000322,323,SHAHRAKKAN PRIMARY BOYS SCHOOL,,BHR,Northern Governorate,,,50.49653157,26.0731775299999
BHR-000323,324,SHAIKH ABDULAZIZ BIN MUHAMMAD SECONDARY BOYS SCHOOL,,BHR,Capital Governorate,,,50.5923111,26.20965298
BHR-000324,325,SHAIKH ABDULLAH BIN ISA SECONDARY TECHNICAL BOYS SCHOOL,,BHR,Southern Governorate,,,50.5440280099999,26.1615155299999
BHR-000325,326,SHAIKH ISA BIN ALI SECONDARY BOYS SCHOOL,,BHR,Southern Governorate,,,50.5437658399999,26.16154905
BHR-000326,327,SHAIKH KHALIFA TECHNOLOGY INSTITUTE,,BHR,Muharraq Governorate,,,50.6017744999999,26.26535485
BHR-000327,328,SHAIKH MUHAMMAD BIN ISA PRIMARY BOYS SCHOOL,,BHR,Muharraq Governorate,,,50.6128510599999,26.2537683599999
BHR-000328,329,SHAIKH MUHAMMAD BIN KHALIFA AAL KHALIFA PRIMARY & INTERMEDIATE BOYS SCHOOL,,BHR,Northern Governorate,,,50.4471881999999,26.2133052199999
BHR-000329,330,SITRA PRIMARY BOYS SCHOOL,,BHR,Capital Governorate,,,50.6171993,26.16135208
BHR-000330,331,TARIQ BIN ZIYAD INTERMEDIATE BOYS SCHOOL,,BHR,Muharraq Governorate,,,50.6190315799999,26.25805902
BHR-000331,332,TUBLI PRIMARY BOYS SCHOOL,,BHR,Capital Governorate,,,50.5517486899999,26.180253
BHR-000332,333,UMM ALHASSAM PRIMARY BOYS SCHOOL,,BHR,Capital Governorate,,,50.5944980599999,26.2049548299999
BHR-000333,334,WEST RIFFA PRIMARY BOYS SCHOOL,,BHR,Southern Governorate,,,50.5472446699999,26.1258532
BHR-000334,335,AʻALI INTERMEDIATE GIRLS SCHOOL,,BHR,Northern Governorate,,,50.5242300099999,26.15236307
BHR-000335,336,AʻALI PRIMARY GIRLS SCHOOL,,BHR,Northern Governorate,,,50.52668954,26.14934981
BHR-000336,337,A'AMENA BINT WAHAB PRIMARY GIRLS SCHOOL,,BHR,Muharraq Governorate,,,50.6054328399999,26.25546968
BHR-000337,338,AIN JALOOT PRIMARY GIRLS SCHOOL,,BHR,Southern Governorate,,,50.5608611899999,26.1657057299999
BHR-000338,339,ʻAISHA UMM AL MOAMININ INTERMEDIATE GIRLS SCHOOL,,BHR,Capital Governorate,,,50.58136933,26.2329471
BHR-000339,340,AL ʻAHAD AL ZAHER SECONDARY GIRLS SCHOOL,,BHR,Northern Governorate,,,50.5105203399999,26.06917438
BHR-000340,341,AL ANDALUS PRIMARY GIRLS SCHOOL,,BHR,Southern Governorate,,,50.57194582,26.13947955
BHR-000341,342,AL BUDAIYA PRIMARY & INTERMEDIATE GIRLS SCHOOL,,BHR,Northern Governorate,,,50.44886331,26.2090469599999
BHR-000342,343,AL BUSAITEEN INTERMEDIATE GIRLS SCHOOL,,BHR,Muharraq Governorate,,,50.61561796,26.26919257
BHR-000343,344,AL BUSAITEEN INTERMEDIATE GIRLS SCHOOL,,BHR,Muharraq Governorate,,,50.6006840299999,26.2778056599999
BHR-000344,345,AL DAIH PRIMARY & INTERMEDIATE GIRLS SCHOOL,,BHR,Capital Governorate,,,50.53472533,26.22566115
BHR-000345,346,AL DAIR PRIMARY & INTERMEDIATE GIRLS SCHOOL,,BHR,Muharraq Governorate,,,50.6289203199999,26.28052359
BHR-000346,347,AL DIRAZ INTERMEDIATE GIRLS SCHOOL,,BHR,Northern Governorate,,,50.46100057,26.21992985
BHR-000347,348,AL DIRAZ PRIMARY GIRLS SCHOOL,,BHR,Northern Governorate,,,50.46257819,26.22502276
BHR-000348,349,AL ESTIQLAL SECONDARY GIRLS SCHOOL,,BHR,Muharraq Governorate,,,50.6103811999999,26.24610753
BHR-000349,350,AL HOORA SECONDARY GIRLS SCHOOL,,BHR,Capital Governorate,,,50.5894737799999,26.23049972
BHR-000350,351,AL KHALEEJ AL ARABI INTERMEDIATE GIRLS SCHOOL,,BHR,Southern Governorate,,,50.5514828,26.13280245
BHR-000351,352,AL KHANSA PRIMARY GIRLS SCHOOL,,BHR,Southern Governorate,,,50.54893065,26.1685087299999
BHR-000352,353,AL MAAREFA FEMALE SECONDARY GIRLS SCHOOL,,BHR,Southern Governorate,,,50.5646854499999,26.1352292499999
BHR-000353,354,AL MANHAL PRIMARY GIRLS SCHOOL,,BHR,Northern Governorate,,,50.4999575599999,26.1115580499999
BHR-000354,355,AL MUHARRAQ PRIMARY GIRLS SCHOOL,,BHR,Muharraq Governorate,,,50.6192862899999,26.25396697
BHR-000355,356,AL MUHARRAQ SECONDARY GIRLS SCHOOL,,BHR,Muharraq Governorate,,,50.61691683,26.2606393199999
BHR-000356,357,AL MUSTAQBAL PRIMARY GIRLS SCHOOL,,BHR,Southern Governorate,,,50.55977687,26.13513537
BHR-000357,358,AL NABIH SALEH PRIMARY GIRLS SCHOOL,,BHR,Capital Governorate,,,50.5849030799999,26.18403722
BHR-000358,359,AL NOOR SECONDARY GIRLS SCHOOL,,BHR,Capital Governorate,,,50.5671396099999,26.15860026
BHR-000359,360,AL NUZHA PRIMARY GIRLS SCHOOL,,BHR,Northern Governorate,,,50.511066,26.0744710899999
BHR-000360,361,AL QADISIYAH PRIMARY GIRLS SCHOOL,,BHR,Capital Governorate,,,50.6124680499999,26.1643931899999
BHR-000361,362,AL QAYRAWAN INTERMEDIATE GIRLS SCHOOL,,BHR,Northern Governorate,,,50.5102839999999,26.07054872
BHR-000362,363,AL RAWDAH PRIMARY GIRLS SCHOOL,,BHR,Northern Governorate,,,50.51053602,26.1122696
BHR-000363,364,AL SAFA PRIMARY GIRLS SCHOOL,,BHR,Northern Governorate,,,50.5198269099999,26.161842
BHR-000364,365,AL SALAM PRIMARY GIRLS SCHOOL,,BHR,Capital Governorate,,,50.5327101399999,26.2211369999999
BHR-000365,366,AL SEHLA PRIMARY GIRLS SCHOOL,,BHR,Northern Governorate,,,50.5284954099999,26.2027591999999
BHR-000366,367,AL SHOROOQ SECONDARY GIRLS SCHOOL,,BHR,Northern Governorate,,,50.4788352799999,26.1853995899999
BHR-000367,368,AL UROOBA PRIMARY GIRLS SCHOOL,,BHR,Muharraq Governorate,,,50.6450590099999,26.24997227
BHR-000368,369,AL WAFA SECONDARY GIRLS SCHOOL,,BHR,Capital Governorate,,,50.56942042,26.1613991
BHR-000369,370,AL ZALLAQ PRIMARY & INTERMEDIATE GIRLS SCHOOL,,BHR,Southern Governorate,,,50.4891416,26.04906452
BHR-000370,371,ALBILAD ALQADIM PRIMARY GIRLS SCHOOL,,BHR,Capital Governorate,,,50.55494936,26.20540226
BHR-000371,372,ALHUNAINIA PRIMARY GIRLS SCHOOL,,BHR,Southern Governorate,,,50.56376513,26.1181051199999
BHR-000372,373,ALQUDS PRIMARY GIRLS SCHOOL,,BHR,Capital Governorate,,,50.60043155,26.2068019899999
BHR-000373,374,ALSALMANIYA PRIMARY GIRLS SCHOOL,,BHR,Capital Governorate,,,50.57189781,26.2205765299999
BHR-000374,375,ALSANABIS INTERMEDIATE GIRLS SCHOOL,,BHR,Capital Governorate,,,50.5464557299999,26.22628183
BHR-000375,376,ALSANABIS PRIMARY GIRLS SCHOOL,,BHR,Capital Governorate,,,50.5432025499999,26.2211816
BHR-000376,377,ALTADHAMUN SECONDARY GIRLS SCHOOL,,BHR,Northern Governorate,,,50.5117051699999,26.0696435499999
BHR-000377,378,ARAD INTERMEDIATE GIRLS SCHOOL,,BHR,Muharraq Governorate,,,50.63029575,26.25475282
BHR-000378,379,ARAD PRIMARY GIRLS SCHOOL,,BHR,Muharraq Governorate,,,50.6311506099999,26.25635743
BHR-000379,380,ASMA THAT ALNETAQAIN PRIMARY GIRLS SCHOOL,,BHR,Muharraq Governorate,,,50.6557176399999,26.23673803
BHR-000380,381,BAIT AL HEKMA PRIMARY GIRLS SCHOOL,,BHR,Capital Governorate,,,50.56898093,26.16235927
BHR-000381,382,BALQEES PRIMARY GIRLS SCHOOL,,BHR,Northern Governorate,,,50.4807643099999,26.1219274
BHR-000382,383,BURI PRIMARY GIRLS SCHOOL,,BHR,Northern Governorate,,,50.4984191799999,26.14694619
BHR-000383,384,BUSAITEEN PRIMARY GIRLS SCHOOL,,BHR,Muharraq Governorate,,,50.6066162199999,26.26173829
BHR-000384,385,EAST RIFFA INTERMEDIATE GIRLS SCHOOL,,BHR,Southern Governorate,,,50.57340751,26.13261791
BHR-000385,386,EAST RIFFA PRIMARY GIRLS SCHOOL,,BHR,Southern Governorate,,,50.57593132,26.1175456699999
BHR-000386,387,FATIMAH AL ZAHRA' PRIMARY GIRLS SCHOOL,,BHR,Capital Governorate,,,50.57974531,26.2301349399999
BHR-000387,388,FATIMAH BINT AL KHATTAB PRIMARY GIRLS SCHOOL,,BHR,Southern Governorate,,,50.5716185,26.1303591799999
BHR-000388,389,FATIMAH BINT ASAD PRIMARY GIRLS SCHOOL,,BHR,Northern Governorate,,,50.51189087,26.21478153
BHR-000389,390,GHARNATAH PRIMARY GIRLS SCHOOL,,BHR,Capital Governorate,,,50.6191433199999,26.15526501
BHR-000390,391,GHAZI AL GOSAIBI SECONDARY GIRLS SCHOOL,,BHR,Northern Governorate,,,50.49493223,26.12439669
BHR-000391,392,HAFSA UMM AL MOAMININ PRIMARY GIRLS SCHOOL,,BHR,Southern Governorate,,,50.56214791,26.1698820999999
BHR-000392,393,HAJAR PRIMARY GIRLS SCHOOL,,BHR,Northern Governorate,,,50.4569898299999,26.21230791
BHR-000393,394,HALIMAH AL SAADIYAH INTERMEDIATE GIRLS SCHOOL,,BHR,Capital Governorate,,,50.57998347,26.21455709
BHR-000394,395,HAMAD TOWN INTERMEDIATE GIRLS SCHOOL,,BHR,Northern Governorate,,,50.50298472,26.13198213
BHR-000395,396,HAMAD TOWN PRIMARY GIRLS SCHOOL,,BHR,Northern Governorate,,,50.5025273799999,26.1281732799999
BHR-000396,397,HAMAD TOWN SECONDARY GIRLS SCHOOL,,BHR,Northern Governorate,,,50.50637614,26.10762413
BHR-000397,398,HIDD INTERMEDIATE GIRLS SCHOOL,,BHR,Muharraq Governorate,,,50.65320492,26.2501488
BHR-000398,399,HIDD SECONDARY GIRLS SCHOOL,,BHR,Muharraq Governorate,,,50.65649888,26.24082267
BHR-000399,400,ISA TOWN INTERMEDIATE GIRLS SCHOOL,,BHR,Southern Governorate,,,50.54302452,26.17493786
BHR-000400,401,ISA TOWN SECONDARY GIRLS SCHOOL,,BHR,Southern Governorate,,,50.5645456299999,26.16614733
BHR-000401,402,JAW PRIMARY & INTERMEDIATE GIRLS SCHOOL,,BHR,Southern Governorate,,,50.6182476999999,25.9961112599999
BHR-000402,403,JIDHAFS SECONDARY GIRLS SCHOOL,,BHR,Capital Governorate,,,50.54056251,26.2153820999999
BHR-000403,404,KARRANAH PRIMARY GIRLS SCHOOL,,BHR,Northern Governorate,,,50.51294267,26.22942928
BHR-000404,405,KHADIJAH AL KUBRA INTERMEDIATE GIRLS SCHOOL,,BHR,Muharraq Governorate,,,50.61281847,26.25260451
BHR-000405,406,KHAWLA SECONDARY GIRLS SCHOOL,,BHR,Capital Governorate,,,50.59442628,26.2205681199999
BHR-000406,407,KURTUBA INTERMEDIATE GIRLS SCHOOL,,BHR,Capital Governorate,,,50.5594819599999,26.2080485299999
BHR-000407,408,MARIAM BINT OMRAN PRIMARY GIRLS SCHOOL,,BHR,Muharraq Governorate,,,50.6135039999999,26.25172701
BHR-000408,409,NUSAIBA BINT KAAB PRIMARY GIRLS SCHOOL,,BHR,Northern Governorate,,,50.5047804399999,26.09855401
BHR-000409,410,NUWAIDRAT PRIMARY GIRLS SCHOOL,,BHR,Capital Governorate,,,50.60075461,26.13560214
BHR-000410,411,OMAYMA BINT AL NUAMAN SECONDARY GIRLS SCHOOL,,BHR,Southern Governorate,,,50.54372019,26.17906504
BHR-000411,412,RABEAA ALADAWIYA PRIMARY GIRLS SCHOOL,,BHR,Capital Governorate,,,50.58742825,26.2245458499999
BHR-000412,413,ROQUYA PRIMARY GIRLS SCHOOL,,BHR,Muharraq Governorate,,,50.6539166199999,26.2729947899999
BHR-000413,414,SABAA PRIMARY GIRLS SCHOOL,,BHR,Northern Governorate,,,50.5103361199999,26.0640486699999
BHR-000414,415,SAFIYA BINT ABDULMUTALIB PRIMARY & INTERMEDIATE GIRLS SCHOOL,,BHR,Northern Governorate,,,50.5060513,26.13603352
BHR-000415,416,SAFRAH PRIMARY & INTERMEDIATE GIRLS SCHOOL,,BHR,Southern Governorate,,,50.5422336299999,26.0988165099999
BHR-000416,417,SAKINAH BINT ALHUSSAIN PRIMARY GIRLS SCHOOL,,BHR,Capital Governorate,,,50.58520842,26.2373605499999
BHR-000417,418,SALIMABAD PRIMARY GIRLS SCHOOL,,BHR,Northern Governorate,,,50.5257592999999,26.1804174799999
BHR-000418,419,SANAD PRIMARY GIRLS SCHOOL,,BHR,Capital Governorate,,,50.57909285,26.1537423999999
BHR-000419,420,SAR PRIMARY GIRLS SCHOOL,,BHR,Northern Governorate,,,50.4869702499999,26.19212744
BHR-000420,421,SAR SECONDARY GIRLS SCHOOL,,BHR,Northern Governorate,,,50.4786338799999,26.18634763
BHR-000421,422,SHAHRAKKAN PRIMARY GIRLS SCHOOL,,BHR,Northern Governorate,,,50.49663812,26.0771905599999
BHR-000422,423,SITRA INTERMEDIATE GIRLS SCHOOL,,BHR,Capital Governorate,,,50.61940931,26.15436001
BHR-000423,424,SITRA PRIMARY GIRLS SCHOOL,,BHR,Capital Governorate,,,50.60760573,26.1692473399999
BHR-000424,425,SITRA SECONDARY GIRLS SCHOOL,,BHR,Capital Governorate,,,50.62895133,26.1644957
BHR-000425,426,SUMAYAH PRIMARY GIRLS SCHOOL,,BHR,Capital Governorate,,,50.5682525699999,26.22358686
BHR-000426,427,TUBLI PRIMARY GIRLS SCHOOL,,BHR,Capital Governorate,,,50.54801329,26.18173446
BHR-000427,428,TULAITOLA PRIMARY GIRLS SCHOOL,,BHR,Northern Governorate,,,50.50629021,26.08904763
BHR-000428,429,UMM AL QURRA PRIMARY INTERMEDIATE GIRLS SCHOOL,,BHR,Capital Governorate,,,50.6022231299999,26.13817445
BHR-000429,430,UMM AYMAN PRIMARY GIRLS SCHOOL,,BHR,Capital Governorate,,,50.59021554,26.2320357999999
BHR-000430,431,UMM KALTHOOM INTERMEDIATE GIRLS SCHOOL,,BHR,Capital Governorate,,,50.56831307,26.15891645
BHR-000431,432,UMM SALAMAH INTERMEDIATE GIRLS SCHOOL,,BHR,Capital Governorate,,,50.59724656,26.22619216
BHR-000432,433,WEST RIFFA INTERMEDIATE GIRLS SCHOOL,,BHR,Southern Governorate,,,50.54556163,26.12091316
BHR-000433,434,WEST RIFFA PRIMARY GIRLS SCHOOL,,BHR,Southern Governorate,,,50.5405969799999,26.11991416
BHR-000434,435,WEST RIFFA SECONDARY GIRLS SCHOOL,,BHR,Southern Governorate,,,50.5461517299999,26.12931361
BHR-000435,436,YATHREB INTERMEDIATE GIRLS SCHOOL,,BHR,Northern Governorate,,,50.5078276699999,26.10743731
BHR-000436,437,ZAINAB INTERMEDIATE GIRLS SCHOOL,,BHR,Northern Governorate,,,50.47822619,26.22813508
BHR-000437,438,ZANOOBIA INTERMEDIATE GIRLS SCHOOL,,BHR,Muharraq Governorate,,,50.6195688399999,26.26157701
BHR-000438,439,ZUBAIDA PRIMARY GIRLS SCHOOL,,BHR,Muharraq Governorate,,,50.6173263499999,26.24501966
